0 YAOGAN 2 DEB
1 38262U 07019B   13282.24302150  .00002131  00000-0  66862-3 0  2071
2 38262 097.8349 192.3620 0193570 022.2877 126.5349 14.31279646306865
0 YAOGAN 2 DEB
1 38262U 07019B   13283.56580097  .00002058  00000-0  64618-3 0  2081
2 38262 097.8350 193.5568 0193470 018.3212 102.2760 14.31284795307050
0 YAOGAN 2 DEB
1 38262U 07019B   13286.22822897  .00002333  00000-0  73071-3 0  2106
2 38262 097.8349 195.9609 0193389 010.3280 140.7840 14.31293425307434
0 YAOGAN 2 DEB
1 38262U 07019B   13287.55097458  .00003366  00000-0  10486-2 0  2118
2 38262 097.8353 197.1556 0193289 006.3632 116.4387 14.31298930307622
0 YAOGAN 2 DEB
1 38262U 07019B   13289.00728190  .00002980  00000-0  93019-3 0  2120
2 38262 097.8355 198.4709 0193145 001.9933 060.3351 14.31310286307834
0 YAOGAN 2 DEB
1 38262U 07019B   13290.55680676  .00003353  00000-0  10449-2 0  2139
2 38262 097.8354 199.8707 0193012 357.3458 124.6076 14.31319057308057
0 YAOGAN 2 DEB
1 38262U 07019B   13292.24110084  .00003188  00000-0  99440-3 0  2144
2 38262 097.8351 201.3924 0192850 352.2865 163.3749 14.31328791308309
0 YAOGAN 2 DEB
1 38262U 07019B   13295.71160872  .00003971  00000-0  12355-2 0  2159
2 38262 097.8344 204.5282 0192551 341.8429 046.2928 14.31348580308790
